[{"OBJECT_NAME":"ZHUHAI-1 03C","OBJECT_ID":"2019-060D","EPOCH":"2026-03-09T23:14:25.268928","MEAN_MOTION":15.71109528,"ECCENTRICITY":0.00111308,"INCLINATION":97.5515,"RA_OF_ASC_NODE":231.2826,"ARG_OF_PERICENTER":267.4607,"MEAN_ANOMALY":92.5381,"EPHEMERIS_TYPE":0,"CLASSIFICATION_TYPE":"U","NORAD_CAT_ID":44537,"ELEMENT_SET_NO":999,"REV_AT_EPOCH":36152,"BSTAR":0.00082474362,"MEAN_MOTION_DOT":0.00104963,"MEAN_MOTION_DDOT":0},{"OBJECT_NAME":"STARLINK-11595 [DTC]","OBJECT_ID":"2025-085F","EPOCH":"2026-03-09T21:49:19.773696","MEAN_MOTION":15.7085045,"ECCENTRICITY":0.00021401,"INCLINATION":42.9999,"RA_OF_ASC_NODE":277.3362,"ARG_OF_PERICENTER":271.4296,"MEAN_ANOMALY":88.6327,"EPHEMERIS_TYPE":0,"CLASSIFICATION_TYPE":"U","NORAD_CAT_ID":63669,"ELEMENT_SET_NO":999,"REV_AT_EPOCH":5092,"BSTAR":0.0015099991,"MEAN_MOTION_DOT":0.00198083,"MEAN_MOTION_DDOT":0}]
